NORAD_CAT_ID,OBJECT_NAME,OBJECT_TYPE,EPOCH,MEAN_MOTION,ECCENTRICITY,INCLINATION,RA_OF_ASC_NODE,ARG_OF_PERICENTER,MEAN_ANOMALY,BSTAR,MEAN_MOTION_DOT,MEAN_MOTION_DDOT,TLE_LINE0,TLE_LINE1,TLE_LINE2,SEMIMAJOR_AXIS,PERIOD,APOGEE,PERIGEE,DECAYED
50809.0,STARLINK-3232,PAYLOAD,2022-02-21 14:00:01,15.73135346,0.0001403,53.216,332.9718,38.9826,260.2954,0.0001554,0.00021184,0.0,0 STARLINK-3232,1 50809U 22001G   22052.58334491  .00021184  00000-0  15540-3 0  9999,2 50809  53.2160 332.9718 0001403  38.9826 260.2954 15.73135346  8507,6728.08,91.537,350.88800000000015,349.001,0.0
50809.0,STARLINK-3232,PAYLOAD,2022-02-21 22:00:00,15.73179558,0.0001517,53.2162,331.3231,41.9715,346.1635,6.9771e-05,9.174e-05,0.0,0 STARLINK-3232,1 50809U 22001G   22052.91667824  .00009174  00000-0  69771-4 0  9996,2 50809  53.2162 331.3231 0001517  41.9715 346.1635 15.73179558  3664,6727.953,91.534,350.839,348.798,0.0
50809.0,STARLINK-3232,PAYLOAD,2022-02-22 04:00:00,15.73163563,0.0001675999999999,53.2162,330.0873,38.3062,326.5126,0.00059208,0.00083172,0.0,0 STARLINK-3232,1 50809U 22001G   22053.16667824  .00083172  00000-0  59208-3 0  9997,2 50809  53.2162 330.0873 0001676  38.3062 326.5126 15.73163563  8608,6727.999,91.535,350.992,348.736,0.0
50809.0,STARLINK-3232,PAYLOAD,2022-02-22 14:00:01,15.73201089,0.0001436,53.2159,328.0232,40.4608,165.5164,0.0006006,0.00084527,0.0,0 STARLINK-3232,1 50809U 22001G   22053.58334491  .00084527  00000-0  60060-3 0  9997,2 50809  53.2159 328.0232 0001436  40.4608 165.5164 15.73201089  3686,6727.892,91.533,350.723,348.791,0.0
50809.0,STARLINK-3232,PAYLOAD,2022-02-22 20:00:01,15.73281044,0.0001419999999999,53.2159,326.7864,43.9576,138.7294,-0.00012735,-0.00018516,0.0,0 STARLINK-3232,1 50809U 22001G   22053.83334491 -.00018516  00000-0 -12735-3 0  9998,2 50809  53.2159 326.7864 0001420  43.9576 138.7294 15.73281044  8700,6727.6640000000025,91.528,350.4840000000001,348.574,0.0
50809.0,STARLINK-3232,PAYLOAD,2022-02-22 22:00:00,15.73307789,0.0001450999999999,53.2157,326.3746,39.3579,255.5768,-0.00063988,-0.00089884,0.0,0 STARLINK-3232,1 50809U 22001G   22053.91667824 -.00089884  00000-0 -63988-3 0  9998,2 50809  53.2157 326.3746 0001451  39.3579 255.5768 15.73307789  3691,6727.5880000000025,91.527,350.42900000000014,348.477,0.0
50809.0,STARLINK-3232,PAYLOAD,2022-02-23 12:00:00,15.73206467,0.0001368,53.2155,323.487,38.6641,322.0139,-0.00023115,-0.00032943,0.0,0 STARLINK-3232,1 50809U 22001G   22054.50001157 -.00032943  00000-0 -23115-3 0  9997,2 50809  53.2155 323.4870 0001368  38.6641 322.0139 15.73206467  8805,6727.877,91.533,350.662,348.821,0.0
50809.0,STARLINK-3232,PAYLOAD,2022-02-23 14:00:01,15.73191476,0.0001321,53.2154,323.0742,39.6351,73.2791,-9.6031e-05,-0.0001406999999999,0.0,0 STARLINK-3232,1 50809U 22001G   22054.58334491 -.00014070  00000-0 -96031-4 0  9994,2 50809  53.2154 323.0742 0001321  39.6351  73.2791 15.73191476  3713,6727.919,91.534,350.673,348.896,0.0
50809.0,STARLINK-3232,PAYLOAD,2022-02-23 22:00:00,15.73157918,0.0001402,53.2157,321.4257,35.7211,166.0848,4.5343e-05,5.737e-05,0.0,0 STARLINK-3232,1 50809U 22001G   22054.91667824  .00005737  00000-0  45343-4 0  9998,2 50809  53.2157 321.4257 0001402  35.7211 166.0848 15.73157918  3695,6728.015,91.536,350.8230000000001,348.93699999999984,0.0
50809.0,STARLINK-3232,PAYLOAD,2022-02-24 14:00:01,15.73204821,0.0001329,53.2174,318.1242,37.353,342.1140000000001,-5.7365e-06,-1.425e-05,0.0,0 STARLINK-3232,1 50809U 22001G   22055.58334491 -.00001425  00000-0 -57365-5 0  9993,2 50809  53.2174 318.1242 0001329  37.3530 342.1140 15.73204821  3699,6727.880999999999,91.533,350.641,348.852,0.0
50809.0,STARLINK-3232,PAYLOAD,2022-02-24 22:00:00,15.73211931,0.0001565999999999,53.2161,316.4767,39.6641,68.9438,0.00013253,0.00018029,0.0,0 STARLINK-3232,1 50809U 22001G   22055.91667824  .00018029  00000-0  13253-3 0  9991,2 50809  53.2161 316.4767 0001566  39.6641  68.9438 15.73211931  9036,6727.861,91.532,350.78,348.673,0.0
50809.0,STARLINK-3232,PAYLOAD,2022-02-25 06:00:00,15.73222004,0.0001573,53.2148,314.8284,34.2151,163.3076,-0.00038949,-0.00054979,0.0,0 STARLINK-3232,1 50809U 22001G   22056.25001157 -.00054979  00000-0 -38949-3 0  9995,2 50809  53.2148 314.8284 0001573  34.2151 163.3076 15.73222004  9088,6727.831999999999,91.532,350.756,348.639,0.0
50809.0,STARLINK-3232,PAYLOAD,2022-02-25 14:00:01,15.73157496,0.0001279,53.2151,313.1768,36.6629,249.8046,0.0006565,0.00092365,0.0,0 STARLINK-3232,1 50809U 22001G   22056.58334491  .00092365  00000-0  65650-3 0  9999,2 50809  53.2151 313.1768 0001279  36.6629 249.8046 15.73157496  3690,6728.016,91.536,350.742,349.021,0.0
50809.0,STARLINK-3232,PAYLOAD,2022-02-25 22:00:00,15.73223743,0.0001485,53.2154,311.5287,36.7786,338.5908,-3.0943000000000005e-05,-4.965e-05,0.0,0 STARLINK-3232,1 50809U 22001G   22056.91667824 -.00004965  00000-0 -30943-4 0  9994,2 50809  53.2154 311.5287 0001485  36.7786 338.5908 15.73223743  9198,6727.8269999999975,91.532,350.69199999999995,348.6930000000001,0.0
50809.0,STARLINK-3232,PAYLOAD,2022-02-26 14:00:01,15.73201438,0.0001599,53.2152,308.2282,48.164,145.1242,-0.00014259,-0.00020585,0.0,0 STARLINK-3232,1 50809U 22001G   22057.58334491 -.00020585  00000-0 -14259-3 0  9996,2 50809  53.2152 308.2282 0001599  48.1640 145.1242 15.73201438  3695,6727.891,91.533,350.832,348.68,0.0
50809.0,STARLINK-3232,PAYLOAD,2022-02-26 20:00:01,15.73190161,0.0001763,53.2153,306.9921,49.0736,120.9801,-0.00013552,-0.00019588,0.0,0 STARLINK-3232,1 50809U 22001G   22057.83335648 -.00019588  00000-0 -13552-3 0  9995,2 50809  53.2153 306.9921 0001763  49.0736 120.9801 15.73190161  9339,6727.9230000000025,91.534,350.974,348.602,0.0
50809.0,STARLINK-3232,PAYLOAD,2022-02-26 22:00:00,15.73173254,0.0001861,53.215,306.5805,48.6483,233.5725,8.1858e-05,0.0001087,0.0,0 STARLINK-3232,1 50809U 22001G   22057.91667824  .00010870  00000-0  81858-4 0  9996,2 50809  53.2150 306.5805 0001861  48.6483 233.5725 15.73173254  3701,6727.971,91.535,351.089,348.584,0.0
50809.0,STARLINK-3232,PAYLOAD,2022-02-27 12:00:00,15.73182617,0.0001665999999999,53.2146,303.6926,52.1332,295.6742,0.00055734,0.00078274,0.0,0 STARLINK-3232,1 50809U 22001G   22058.50001157  .00078274  00000-0  55734-3 0  9998,2 50809  53.2146 303.6926 0001666  52.1332 295.6742 15.73182617  9431,6727.945,91.534,350.931,348.689,0.0
50809.0,STARLINK-3232,PAYLOAD,2022-02-27 14:00:01,15.73191431,0.0001641,53.2145,303.2799,53.4273,46.6119,0.00058084,0.00081664,0.0,0 STARLINK-3232,1 50809U 22001G   22058.58334491  .00081664  00000-0  58084-3 0  9994,2 50809  53.2145 303.2799 0001641  53.4273  46.6119 15.73191431  3693,6727.92,91.534,350.889,348.681,0.0
50809.0,STARLINK-3232,PAYLOAD,2022-02-27 22:00:00,15.73257097,0.0001737,53.2147,301.6322,46.2782,142.708,-0.00054465,-0.00076557,0.0,0 STARLINK-3232,1 50809U 22001G   22058.91667824 -.00076557  00000-0 -54465-3 0  9996,2 50809  53.2147 301.6322 0001737  46.2782 142.7080 15.73257097  9502,6727.732,91.53,350.766,348.42900000000014,0.0
50809.0,STARLINK-3232,PAYLOAD,2022-02-28 06:00:00,15.73225478,0.0001662,53.2146,299.9826,40.5866,237.3633,0.00016092,0.00022048,0.0,0 STARLINK-3232,1 50809U 22001G   22059.25001157  .00022048  00000-0  16092-3 0  9993,2 50809  53.2146 299.9826 0001662  40.5866 237.3633 15.73225478  9554,6727.823,91.532,350.806,348.569,0.0
50809.0,STARLINK-3232,PAYLOAD,2022-02-28 14:00:01,15.72784726,0.0001647,53.2165,298.3291,56.4263,310.5678,0.0034975,0.00512246,0.0,0 STARLINK-3232,1 50809U 22001G   22059.58334491  .00512246  00000-0  34975-2 0  9992,2 50809  53.2165 298.3291 0001647  56.4263 310.5678 15.72784726  9619,6729.079000000002,91.557,352.05300000000005,349.836,0.0
50809.0,STARLINK-3232,PAYLOAD,2022-02-28 22:00:00,15.73226407,0.0001585,53.2141,296.6839,37.5639,58.2711,-9.566e-05,-0.00014039,0.0,0 STARLINK-3232,1 50809U 22001G   22059.91667824 -.00014039  00000-0 -95660-4 0  9997,2 50809  53.2141 296.6839 0001585  37.5639  58.2711 15.73226407  9667,6727.82,91.532,350.751,348.619,0.0
50809.0,STARLINK-3232,PAYLOAD,2022-03-01 14:00:01,15.73190543,0.0001363,53.2135,293.3827,44.3363,229.3916,-0.00014066,-0.00020305,0.0,0 STARLINK-3232,1 50809U 22001G   22060.58334491 -.00020305  00000-0 -14066-3 0  9996,2 50809  53.2135 293.3827 0001363  44.3363 229.3916 15.73190543  3691,6727.922,91.534,350.704,348.87,0.0
50809.0,STARLINK-3232,PAYLOAD,2022-03-01 22:00:01,15.73162193,0.0001512,53.2136,291.7352,35.8191,326.8693,0.00013624,0.00018512,0.0,0 STARLINK-3232,1 50809U 22001G   22060.91668981  .00018512  00000-0  13624-3 0  9991,2 50809  53.2136 291.7352 0001512  35.8191 326.8693 15.73162193  9812,6728.003000000002,91.535,350.885,348.851,0.0
50809.0,STARLINK-3232,PAYLOAD,2022-03-02 14:00:01,15.72880732,0.0001472,53.2163,288.4317,41.5756,138.9224,0.0030303,0.00441762,0.0,0 STARLINK-3232,1 50809U 22001G   22061.58334491  .00441762  00000-0  30303-2 0  9990,2 50809  53.2163 288.4317 0001472  41.5756 138.9224 15.72880732  9921,6728.806,91.552,351.661,349.68,0.0
50809.0,STARLINK-3232,PAYLOAD,2022-03-02 19:20:06,15.73211687,0.0001599,53.2133,287.3343,25.7414,334.3686,0.00014028,0.00019122,0.0,0 STARLINK-3232,1 50809U 22001G   22061.80563139  .00019122  00000-0  14028-3 0  9996,2 50809  53.2133 287.3343 0001599  25.7414 334.3686 15.73211687  9955,6727.861999999999,91.533,350.80300000000005,348.651,0.0
50809.0,STARLINK-3232,PAYLOAD,2022-03-02 22:00:00,15.73259467,0.0001691,53.213,286.7867,38.2317,231.1742,-0.00057906,-0.00081317,0.0,0 STARLINK-3232,1 50809U 22001G   22061.91667824 -.00081317  00000-0 -57906-3 0  9993,2 50809  53.2130 286.7867 0001691  38.2317 231.1742 15.73259467  3702,6727.726,91.53,350.728,348.45300000000015,0.0
50809.0,STARLINK-3232,PAYLOAD,2022-03-03 12:00:00,15.73201389,0.0001385,53.2124,283.8975,41.1708,293.9171,-4.9874e-05,-7.614e-05,0.0,0 STARLINK-3232,1 50809U 22001G   22062.50001157 -.00007614  00000-0 -49874-4 0  9994,2 50809  53.2124 283.8975 0001385  41.1708 293.9171 15.73201389 10069,6727.891,91.533,350.68800000000016,348.824,0.0
